{
  "norad_id": 60034,
  "name": "STARLINK-32005",
  "history": [
    {
      "epoch": "2026-03-28T21:17:10.204224",
      "apogee_km": 476.15809950413586,
      "perigee_km": 474.2336836281838,
      "latitude_deg": 52.243679224141566,
      "longitude_deg": -91.45532864006236,
      "semi_major_axis_km": 6853.33289156616,
      "eccentricity": 0.0001404,
      "inclination_deg": 53.1618,
      "raan_deg": 346.3847,
      "arg_perigee_deg": 92.1111,
      "mean_anomaly_deg": 268.005,
      "mean_motion_rev_day": 15.30206423
    }
  ]
}